ONEWEB-0229             
1 48779U 21045N   24149.44071469 -.00000067  00000+0 -21209-3 0  9993
2 48779  87.9054  48.4026 0001928  86.7482 273.3869 13.15547756145832
ONEWEB-0228             
1 48780U 21045P   24149.75999514 -.00000001  00000+0 -37906-4 0  9999
2 48780  87.9046  48.3151 0001943  88.8442 271.2911 13.15550059146925
ONEWEB-0232             
1 48781U 21045Q   24149.44862919 -.00000244  00000+0 -68202-3 0  9995
2 48781  87.9043  48.3994 0001925  82.7812 277.3537 13.15550811146075
ONEWEB-0231             
1 48782U 21045R   24149.42645732  .00000008  00000+0 -11822-4 0  9990
2 48782  87.9062  48.4306 0002104  86.4162 273.7209 13.15548584145769
ONEWEB-0234             
1 48783U 21045S   24149.44625728 -.00000026  00000+0 -10331-3 0  9990
2 48783  87.9052  48.3877 0002340  45.2297 314.9024 13.15548412145904
ONEWEB-0238             
1 48784U 21045T   24149.70453399  .00000120  00000+0  28481-3 0  9991
2 48784  87.9051  48.3545 0001859  74.6282 285.5053 13.15549260146964
ONEWEB-0240             
1 48785U 21045U   24149.48586773  .00000152  00000+0  36975-3 0  9992
2 48785  87.9051  48.3653 0002348  81.8354 278.3043 13.15551176145832
ONEWEB-0246             
1 48786U 21045V   24149.48032588  .00000146  00000+0  35327-3 0  9996
2 48786  87.9054  48.3704 0001881  86.9304 273.2042 13.15549253145707
